OBJECT_NAME,OBJECT_ID,EPOCH,MEAN_MOTION,ECCENTRICITY,INCLINATION,RA_OF_ASC_NODE,ARG_OF_PERICENTER,MEAN_ANOMALY,EPHEMERIS_TYPE,CLASSIFICATION_TYPE,NORAD_CAT_ID,ELEMENT_SET_NO,REV_AT_EPOCH,BSTAR,MEAN_MOTION_DOT,MEAN_MOTION_DDOT
ONEWEB-0225,2021-045AJ,2026-07-07T03:18:18.868896,13.15548084,.000204,87.8996,255.2243,115.0793,245.0549,0,U,48799,999,24704,-.32762E-3,-.111E-5,0
ONEWEB-0215,2021-045AK,2026-07-06T04:40:41.334240,13.15549030,.0002143,87.9004,255.3956,118.0270,242.1077,0,U,48800,999,24679,.31957041E-3,.133E-5,0
ONEWEB-0216,2021-045AL,2026-07-07T04:38:10.506624,13.15548045,.0002,87.9001,255.2109,97.2169,262.9189,0,U,48801,999,24693,.18659E-3,.83E-6,0
ONEWEB-0239,2021-045AM,2026-07-07T04:45:01.171872,13.15547750,.0002457,87.8988,255.2144,117.0593,243.0788,0,U,48802,999,24697,.10996E-3,.54E-6,0
ONEWEB-0249,2021-060A,2026-07-06T14:01:05.326752,13.16596447,.0002165,87.9082,224.9253,97.1179,263.0199,0,U,48967,999,24216,-.88814E-4,-.21E-6,0
ONEWEB-0250,2021-060B,2026-07-06T15:03:16.552224,13.25835145,.0003136,87.9083,222.6098,94.5527,265.5968,0,U,48968,999,24279,-.76686E-4,-.2E-6,0
ONEWEB-0252,2021-060D,2026-07-06T14:45:34.958880,13.16594936,.0001837,87.9080,224.9117,95.0582,265.0759,0,U,48970,999,24221,.45951E-4,.3E-6,0
ONEWEB-0253,2021-060E,2026-07-06T14:29:37.493088,13.16594853,.0002167,87.9078,224.9194,96.6238,263.5140,0,U,48971,999,24214,.35768E-4,.27E-6,0
ONEWEB-0254,2021-060F,2026-07-07T01:39:55.017792,13.16593224,.0002229,87.9082,224.8248,102.4404,257.6977,0,U,48972,999,24220,-.11407E-3,-.31E-6,0
ONEWEB-0255,2021-060G,2026-07-07T00:45:11.848896,13.16593957,.0002111,87.9083,224.8385,99.7646,260.3724,0,U,48973,999,24227,.85176E-4,.45E-6,0
ONEWEB-0256,2021-060H,2026-07-06T14:26:12.254208,13.16594501,.0002021,87.9077,224.9273,91.9961,268.1402,0,U,48974,999,24218,-.12854E-3,-.36E-6,0
ONEWEB-0257,2021-060J,2026-07-06T15:12:56.267712,13.16593131,.0001975,87.9081,224.9087,98.0506,262.0849,0,U,48975,999,24214,.39911E-4,.28E-6,0
ONEWEB-0258,2021-060K,2026-07-06T15:15:13.229856,13.16594077,.000212,87.9082,224.9206,95.8060,264.3312,0,U,48976,999,24215,.15073E-3,.7E-6,0
ONEWEB-0259,2021-060L,2026-07-07T02:02:42.834336,13.16593216,.0002203,87.9079,224.8302,98.5431,261.5950,0,U,48977,999,24224,.14756E-3,.69E-6,0
ONEWEB-0260,2021-060M,2026-07-07T01:50:09.669984,13.16594744,.00017,87.9075,224.8326,89.9349,270.1977,0,U,48978,999,24222,.5932E-4,.36E-6,0
ONEWEB-0261,2021-060N,2026-07-06T15:59:40.907616,13.16593356,.0001946,87.9080,224.9147,103.5143,256.6205,0,U,48979,999,24222,-.29984E-3,-.102E-5,0
ONEWEB-0262,2021-060P,2026-07-07T00:38:21.353856,13.16593653,.0002306,87.9083,224.8294,98.7508,261.3884,0,U,48980,999,24223,.2117E-3,.94E-6,0
ONEWEB-0263,2021-060Q,2026-07-06T14:27:20.141280,13.16593766,.0002043,87.9081,224.9257,104.6037,255.5321,0,U,48981,999,24214,-.10269E-3,-.26E-6,0
ONEWEB-0264,2021-060R,2026-07-07T02:17:30.322176,13.16596703,.0001882,87.9075,224.8301,98.0786,262.0558,0,U,48982,999,24221,.20644E-3,.92E-6,0
ONEWEB-0266,2021-060T,2026-07-06T15:51:41.683104,13.16595450,.0002147,87.9083,224.9071,92.8813,267.2564,0,U,48984,999,24214,-.19315E-3,-.61E-6,0
ONEWEB-0267,2021-060U,2026-07-06T14:18:13.262112,13.16593724,.0001964,87.9082,224.9172,99.8631,260.2722,0,U,48985,999,24214,-.17971E-3,-.56E-6,0
ONEWEB-0268,2021-060V,2026-07-07T02:18:40.180032,13.16593408,.0001964,87.9082,224.8270,92.3468,267.7888,0,U,48986,999,24247,.17367E-3,.79E-6,0
ONEWEB-0269,2021-060W,2026-07-07T01:51:18.772704,13.16592884,.0002017,87.9075,224.8317,88.9366,271.1996,0,U,48987,999,24224,.53437E-4,.33E-6,0
ONEWEB-0270,2021-060X,2026-07-07T02:16:23.705184,13.16593725,.0002224,87.9084,224.8295,104.0590,256.0789,0,U,48988,999,24228,.23704E-3,.103E-5,0
ONEWEB-0271,2021-060Y,2026-07-07T01:58:09.410304,13.16593284,.0002018,87.9078,224.8214,102.0952,258.0405,0,U,48989,999,24228,.43605E-4,.3E-6,0
ONEWEB-0272,2021-060Z,2026-07-07T00:40:38.633088,13.16595525,.0001769,87.9075,224.8433,95.2915,264.8418,0,U,48990,999,24222,.19229E-3,.86E-6,0
ONEWEB-0273,2021-060AA,2026-07-06T14:15:56.231712,13.16593768,.0002107,87.9081,224.9298,98.7395,261.3975,0,U,48991,999,24214,-.12934E-3,-.37E-6,0
ONEWEB-0274,2021-060AB,2026-07-07T01:49:01.565184,13.16594405,.0001747,87.9071,224.8347,92.9259,267.2072,0,U,48992,999,24224,.99607E-4,.51E-6,0
ONEWEB-0275,2021-060AC,2026-07-07T01:33:04.239360,13.16595199,.0001973,87.9081,224.8279,96.1703,263.9653,0,U,48993,999,24217,-.59659E-4,-.1E-6,0
ONEWEB-0276,2021-060AD,2026-07-07T04:10:23.410848,13.16593410,.0001903,87.9082,224.8052,93.3517,266.7831,0,U,48994,999,24220,.2655E-3,.114E-5,0
ONEWEB-0277,2021-060AE,2026-07-07T00:49:46.345152,13.16594865,.0002083,87.9078,224.8405,99.5011,260.6355,0,U,48995,999,24217,.13282E-3,.64E-6,0
